GSAT0101 (GALILEO-PFM)  
1 37846U 11060A   24346.87185521 -.00000074  00000+0  00000+0 0  9992
2 37846  57.1198 356.7268 0002651 313.5231  46.4933  1.70475608 81837
GSAT0102 (GALILEO-FM2)  
1 37847U 11060B   24349.13983628 -.00000084  00000+0  00000+0 0  9990
2 37847  57.1203 356.6654 0004781 306.4077  50.8726  1.70475151 81874
GSAT0103 (GALILEO-FM3)  
1 38857U 12055A   24347.49783263  .00000018  00000+0  00000+0 0  9993
2 38857  55.4927 116.7038 0002756 253.2008 106.7232  1.70473340 75609
GSAT0201 (GALILEO 5)    
1 40128U 14050A   24345.33747940 -.00000080  00000+0  00000+0 0  9997
2 40128  49.4759 295.9693 1615988 158.0858 209.7210  1.85519447 68044
GSAT0202 (GALILEO 6)    
1 40129U 14050B   24345.59510641 -.00000081  00000+0  00000+0 0  9993
2 40129  49.4917 295.0383 1615387 158.8836 208.6556  1.85520230 70210
GSAT0203 (GALILEO 7)    
1 40544U 15017A   24347.82381949 -.00000079  00000+0  00000+0 0  9990
2 40544  56.9144 356.6106 0006171 267.2087  92.7562  1.70475804 59801
GSAT0204 (GALILEO 8)    
1 40545U 15017B   24348.07849854 -.00000080  00000+0  00000+0 0  9995
2 40545  56.9207 356.6199 0005890 257.9910 101.9778  1.70475485 22854
GSAT0205 (GALILEO 9)    
1 40889U 15045A   24347.26052610  .00000027  00000+0  00000+0 0  9993
2 40889  55.1396 236.8522 0005867  36.5772 323.5419  1.70472862 57606
GSAT0206 (GALILEO 10)   
1 40890U 15045B   24347.48115701  .00000028  00000+0  00000+0 0  9991
2 40890  55.1386 236.8413 0003865  34.2257 325.8794  1.70472914 57637
GSAT0209 (GALILEO 12)   
1 41174U 15079A   24348.23672024  .00000010  00000+0  00000+0 0  9995
2 41174  55.5121 116.3943 0002024 336.6877  23.2528  1.70474405 55962
GSAT0208 (GALILEO 11)   
1 41175U 15079B   24348.45659908  .00000008  00000+0  00000+0 0  9993
2 41175  55.5105 116.3858 0001438 346.7291  13.2158  1.70474284 55963
GSAT0211 (GALILEO 14)   
1 41549U 16030A   24345.06052710  .00000020  00000+0  00000+0 0  9992
2 41549  55.2885 236.9384 0003815   6.0889 353.9869  1.70472935 53224
GSAT0210 (GALILEO 13)   
1 41550U 16030B   24345.31846670  .00000021  00000+0  00000+0 0  9999
2 41550  55.2877 236.9297 0000789 236.7297 123.3342  1.70473340 53228
GSAT0207 (GALILEO 15)   
1 41859U 16069A   24347.35707558  .00000019  00000+0  00000+0 0  9997
2 41859  55.1776 116.3764 0002109 304.2820  55.6531  1.70474351 49997
GSAT0212 (GALILEO 16)   
1 41860U 16069B   24348.38432439  .00000008  00000+0  00000+0 0  9994
2 41860  55.1762 116.3440 0001489  20.2380 339.7168  1.70474570 50268
GSAT0213 (GALILEO 17)   
1 41861U 16069C   24348.16600363  .00000010  00000+0  00000+0 0  9997
2 41861  55.1780 116.3572 0002430 267.0169  92.9054  1.70474893 50123
GSAT0214 (GALILEO 18)   
1 41862U 16069D   24348.31144927  .00000009  00000+0  00000+0 0  9992
2 41862  55.1767 116.3464 0001529 262.4246  97.5074  1.70474673 50255
GSAT0215 (GALILEO 19)   
1 43055U 17079A   24343.52222391  .00000021  00000+0  00000+0 0  9994
2 43055  55.2662 236.8003 0001363 329.0988  30.9663  1.70473692 43518
GSAT0216 (GALILEO 20)   
1 43056U 17079B   24344.98695526  .00000020  00000+0  00000+0 0  9999
2 43056  55.2659 236.7599 0002710 312.3839  47.6645  1.70473833 43557
GSAT0217 (GALILEO 21)   
1 43057U 17079C   24348.72704772  .00000032  00000+0  00000+0 0  9993
2 43057  55.2620 236.6552 0002760 346.3683  13.7119  1.70473693 43603
GSAT0218 (GALILEO 22)   
1 43058U 17079D   24347.77390535  .00000030  00000+0  00000+0 0  9994
2 43058  55.2631 236.6790 0002785 305.7783  54.2781  1.70473776 43615
GSAT0221 (GALILEO 25)   
1 43564U 18060A   24347.67490962 -.00000077  00000+0  00000+0 0  9993
2 43564  57.2949 356.6602 0006395 278.3592  81.6046  1.70475678 39762
GSAT0222 (GALILEO 26)   
1 43565U 18060B   24349.06684720 -.00000083  00000+0  00000+0 0  9993
2 43565  57.2988 356.6245 0005787 259.2296 100.7369  1.70475409 39833
GSAT0219 (GALILEO 23)   
1 43566U 18060C   24348.70188381 -.00000081  00000+0  00000+0 0  9994
2 43566  57.2974 356.6363 0005570 284.3082  75.6630  1.70475705 39809
GSAT0220 (GALILEO 24)   
1 43567U 18060D   24344.81654737 -.00000067  00000+0  00000+0 0  9990
2 43567  57.2976 356.7418 0005846 280.5083  79.4668  1.70475372 39723
GSAT0223 (GALILEO 27)   
1 49809U 21116A   24347.60654338 -.00000077  00000+0  00000+0 0  9999
2 49809  57.2875 356.5593 0004250 247.2634 115.5373  1.70475531 18783
GSAT0224 (GALILEO 28)   
1 49810U 21116B   24344.65902760 -.00000066  00000+0  00000+0 0  9996
2 49810  57.2884 356.6378 0003701 250.4890 215.8895  1.70475597 18759
GSAT0225 (GALILEO 29)   
1 59598U 24079A   24347.42806042  .00000018  00000+0  00000+0 0  9991
2 59598  54.7944 116.5200 0002792 176.2654 180.6334  1.70474743  3901
GSAT0227 (GALILEO 30)   
1 59600U 24079C   24349.37609701  .00000001  00000+0  00000+0 0  9996
2 59600  54.7905 116.4657 0003252 123.3588 236.6176  1.70474745  3995
GSAT0232 (GALILEO 32)   
1 61182U 24167A   24348.10222031  .00000031  00000+0  00000+0 0  9992
2 61182  55.3712 236.4374 0001768 205.8056 288.0167  1.70474198  1486
GSAT0226 (GALILEO 31)   
1 61183U 24167B   24349.46073372  .00000033  00000+0  00000+0 0  9997
2 61183  55.3684 236.4072 0001033 110.2055 249.8970  1.70476128  1496
